{
  "type": "FeatureCollection",
  "features": [
    {
      "type": "Feature",
      "properties": {
        "norad_id": 40730,
        "name": "GPS BIIF-10 (PRN 08)",
        "group": "gps-ops",
        "lat": 50.39459385638707,
        "lon": 33.25107919999484,
        "alt_km": 20125.921002105133,
        "timestamp": "2025-12-27T20:30:59.540754+00:00",
        "meta_object_name": "GPS BIIF-10 (PRN 08)",
        "meta_object_id": "2015-033A",
        "meta_epoch": "2025-12-26T05:05:23.462304",
        "meta_mean_motion": 2.00564909,
        "meta_eccentricity": 0.0111756,
        "meta_inclination": 54.1189,
        "meta_ra_of_asc_node": 274.2184,
        "meta_arg_of_pericenter": 27.1685,
        "meta_mean_anomaly": 333.4602,
        "meta_ephemeris_type": 0,
        "meta_classification_type": "U",
        "meta_norad_cat_id": 40730,
        "meta_element_set_no": 999,
        "meta_rev_at_epoch": 7652,
        "meta_bstar": 0,
        "meta_mean_motion_dot": -2e-07,
        "meta_mean_motion_ddot": 0,
        "tle_line1": "1 40730U 15033A   25360.21207711 -.00000020  00000+0  00000+0 0  9994",
        "tle_line2": "2 40730  54.1189 274.2184 0111756  27.1685 333.4602  2.00564909 76528"
      },
      "geometry": {
        "type": "Point",
        "coordinates": [
          33.25107919999484,
          50.39459385638707
        ]
      }
    },
    {
      "type": "Feature",
      "properties": {
        "norad_id": 41019,
        "name": "GPS BIIF-11 (PRN 10)",
        "group": "gps-ops",
        "lat": 47.70311291021031,
        "lon": 83.33502596649315,
        "alt_km": 20465.60427872039,
        "timestamp": "2025-12-27T20:30:59.540766+00:00",
        "meta_object_name": "GPS BIIF-11 (PRN 10)",
        "meta_object_id": "2015-062A",
        "meta_epoch": "2025-12-26T06:30:53.631648",
        "meta_mean_motion": 2.00567029,
        "meta_eccentricity": 0.0111129,
        "meta_inclination": 56.842,
        "meta_ra_of_asc_node": 37.479,
        "meta_arg_of_pericenter": 230.2895,
        "meta_mean_anomaly": 128.7854,
        "meta_ephemeris_type": 0,
        "meta_classification_type": "U",
        "meta_norad_cat_id": 41019,
        "meta_element_set_no": 999,
        "meta_rev_at_epoch": 7436,
        "meta_bstar": 0,
        "meta_mean_motion_dot": -4.9e-07,
        "meta_mean_motion_ddot": 0,
        "tle_line1": "1 41019U 15062A   25360.27145407 -.00000049  00000+0  00000+0 0  9997",
        "tle_line2": "2 41019  56.8420  37.4790 0111129 230.2895 128.7854  2.00567029 74362"
      },
      "geometry": {
        "type": "Point",
        "coordinates": [
          83.33502596649315,
          47.70311291021031
        ]
      }
    },
    {
      "type": "Feature",
      "properties": {
        "norad_id": 41328,
        "name": "GPS BIIF-12 (PRN 32)",
        "group": "gps-ops",
        "lat": 2.808505472144605,
        "lon": 98.19713884566396,
        "alt_km": 20302.25632921759,
        "timestamp": "2025-12-27T20:30:59.540777+00:00",
        "meta_object_name": "GPS BIIF-12 (PRN 32)",
        "meta_object_id": "2016-007A",
        "meta_epoch": "2025-12-27T08:26:09.961152",
        "meta_mean_motion": 2.00559889,
        "meta_eccentricity": 0.0092886,
        "meta_inclination": 55.4141,
        "meta_ra_of_asc_node": 96.277,
        "meta_arg_of_pericenter": 243.9752,
        "meta_mean_anomaly": 115.0799,
        "meta_ephemeris_type": 0,
        "meta_classification_type": "U",
        "meta_norad_cat_id": 41328,
        "meta_element_set_no": 999,
        "meta_rev_at_epoch": 7239,
        "meta_bstar": 0,
        "meta_mean_motion_dot": 2e-08,
        "meta_mean_motion_ddot": 0,
        "tle_line1": "1 41328U 16007A   25361.35150418  .00000002  00000+0  00000+0 0  9996",
        "tle_line2": "2 41328  55.4141  96.2770 0092886 243.9752 115.0799  2.00559889 72395"
      },
      "geometry": {
        "type": "Point",
        "coordinates": [
          98.19713884566396,
          2.808505472144605
        ]
      }
    },
    {
      "type": "Feature",
      "properties": {
        "norad_id": 43873,
        "name": "GPS BIII-1  (PRN 04)",
        "group": "gps-ops",
        "lat": -53.555293597549905,
        "lon": -13.000776457267918,
        "alt_km": 20140.907817873893,
        "timestamp": "2025-12-27T20:30:59.540788+00:00",
        "meta_object_name": "GPS BIII-1  (PRN 04)",
        "meta_object_id": "2018-109A",
        "meta_epoch": "2025-12-26T12:23:38.434848",
        "meta_mean_motion": 2.00553927,
        "meta_eccentricity": 0.0037609,
        "meta_inclination": 55.5742,
        "meta_ra_of_asc_node": 99.0034,
        "meta_arg_of_pericenter": 195.6344,
        "meta_mean_anomaly": 174.7569,
        "meta_ephemeris_type": 0,
        "meta_classification_type": "U",
        "meta_norad_cat_id": 43873,
        "meta_element_set_no": 999,
        "meta_rev_at_epoch": 5161,
        "meta_bstar": 0,
        "meta_mean_motion_dot": 1.3e-07,
        "meta_mean_motion_ddot": 0,
        "tle_line1": "1 43873U 18109A   25360.51641707  .00000013  00000+0  00000+0 0  9993",
        "tle_line2": "2 43873  55.5742  99.0034 0037609 195.6344 174.7569  2.00553927 51612"
      },
      "geometry": {
        "type": "Point",
        "coordinates": [
          -13.000776457267918,
          -53.555293597549905
        ]
      }
    },
    {
      "type": "Feature",
      "properties": {
        "norad_id": 44506,
        "name": "GPS BIII-2  (PRN 18)",
        "group": "gps-ops",
        "lat": 21.272462705759697,
        "lon": 142.54423850259525,
        "alt_km": 20070.241324416653,
        "timestamp": "2025-12-27T20:30:59.540799+00:00",
        "meta_object_name": "GPS BIII-2  (PRN 18)",
        "meta_object_id": "2019-056A",
        "meta_epoch": "2025-12-27T04:57:07.509024",
        "meta_mean_motion": 2.00566436,
        "meta_eccentricity": 0.0057783,
        "meta_inclination": 55.7159,
        "meta_ra_of_asc_node": 337.979,
        "meta_arg_of_pericenter": 198.6912,
        "meta_mean_anomaly": 207.4139,
        "meta_ephemeris_type": 0,
        "meta_classification_type": "U",
        "meta_norad_cat_id": 44506,
        "meta_element_set_no": 999,
        "meta_rev_at_epoch": 4662,
        "meta_bstar": 0,
        "meta_mean_motion_dot": -6e-07,
        "meta_mean_motion_ddot": 0,
        "tle_line1": "1 44506U 19056A   25361.20633691 -.00000060  00000+0  00000+0 0  9992",
        "tle_line2": "2 44506  55.7159 337.9790 0057783 198.6912 207.4139  2.00566436 46623"
      },
      "geometry": {
        "type": "Point",
        "coordinates": [
          142.54423850259525,
          21.272462705759697
        ]
      }
    },
    {
      "type": "Feature",
      "properties": {
        "norad_id": 45854,
        "name": "GPS BIII-3  (PRN 23)",
        "group": "gps-ops",
        "lat": 55.822474439288236,
        "lon": 138.9980075909697,
        "alt_km": 20220.794822958072,
        "timestamp": "2025-12-27T20:30:59.540810+00:00",
        "meta_object_name": "GPS BIII-3  (PRN 23)",
        "meta_object_id": "2020-041A",
        "meta_epoch": "2025-12-26T05:40:05.983104",
        "meta_mean_motion": 2.00561528,
        "meta_eccentricity": 0.0060682,
        "meta_inclination": 56.556,
        "meta_ra_of_asc_node": 35.6606,
        "meta_arg_of_pericenter": 203.8008,
        "meta_mean_anomaly": 165.623,
        "meta_ephemeris_type": 0,
        "meta_classification_type": "U",
        "meta_norad_cat_id": 45854,
        "meta_element_set_no": 999,
        "meta_rev_at_epoch": 4057,
        "meta_bstar": 0,
        "meta_mean_motion_dot": -5e-07,
        "meta_mean_motion_ddot": 0,
        "tle_line1": "1 45854U 20041A   25360.23618036 -.00000050  00000+0  00000+0 0  9992",
        "tle_line2": "2 45854  56.5560  35.6606 0060682 203.8008 165.6230  2.00561528 40572"
      },
      "geometry": {
        "type": "Point",
        "coordinates": [
          138.9980075909697,
          55.822474439288236
        ]
      }
    },
    {
      "type": "Feature",
      "properties": {
        "norad_id": 46826,
        "name": "GPS BIII-4  (PRN 14)",
        "group": "gps-ops",
        "lat": 49.04286288975831,
        "lon": -85.42888249758653,
        "alt_km": 20296.836832816014,
        "timestamp": "2025-12-27T20:30:59.540821+00:00",
        "meta_object_name": "GPS BIII-4  (PRN 14)",
        "meta_object_id": "2020-078A",
        "meta_epoch": "2025-12-16T01:06:13.902336",
        "meta_mean_motion": 2.00566891,
        "meta_eccentricity": 0.0064754,
        "meta_inclination": 54.0144,
        "meta_ra_of_asc_node": 218.2068,
        "meta_arg_of_pericenter": 203.3802,
        "meta_mean_anomaly": 339.3962,
        "meta_ephemeris_type": 0,
        "meta_classification_type": "U",
        "meta_norad_cat_id": 46826,
        "meta_element_set_no": 999,
        "meta_rev_at_epoch": 3783,
        "meta_bstar": 0,
        "meta_mean_motion_dot": 6.7e-07,
        "meta_mean_motion_ddot": 0,
        "tle_line1": "1 46826U 20078A   25350.04599424  .00000067  00000+0  00000+0 0  9996",
        "tle_line2": "2 46826  54.0144 218.2068 0064754 203.3802 339.3962  2.00566891 37830"
      },
      "geometry": {
        "type": "Point",
        "coordinates": [
          -85.42888249758653,
          49.04286288975831
        ]
      }
    }
  ]
}